NORAD_CAT_ID,OBJECT_NAME,OBJECT_TYPE,EPOCH,MEAN_MOTION,ECCENTRICITY,INCLINATION,RA_OF_ASC_NODE,ARG_OF_PERICENTER,MEAN_ANOMALY,BSTAR,MEAN_MOTION_DOT,MEAN_MOTION_DDOT,TLE_LINE0,TLE_LINE1,TLE_LINE2,SEMIMAJOR_AXIS,PERIOD,APOGEE,PERIGEE,DECAYED
49426.0,STARLINK-3114,PAYLOAD,2024-08-14 19:58:01,15.08863986,0.0001682,53.2161,276.2919,55.0473,305.0677,0.0010645,0.00016705,0.0,0 STARLINK-3114,1 49426U 21104U   24227.83196544  .00016705  00000-0  10645-2 0  9997,2 49426  53.2161 276.2919 0001682  55.0473 305.0677 15.08863986153384,6917.807,95.436,540.836,538.508,0.0
49426.0,STARLINK-3114,PAYLOAD,2024-08-15 10:16:29,15.08859493,0.0001638,53.2172,273.6183,67.4261,292.6904,0.00032253,4.851e-05,0.0,0 STARLINK-3114,1 49426U 21104U   24228.42811949  .00004851  00000-0  32253-3 0  9995,2 49426  53.2172 273.6183 0001638  67.4261 292.6904 15.08859493152384,6917.821,95.436,540.819,538.553,0.0
49426.0,STARLINK-3114,PAYLOAD,2024-08-15 19:48:47,15.0886172,0.0001608,53.2164,271.834,66.9304,293.1857,0.00028895,4.316e-05,0.0,0 STARLINK-3114,1 49426U 21104U   24228.82555421  .00004316  00000-0  28895-3 0  9992,2 49426  53.2164 271.8340 0001608  66.9304 293.1857 15.08861720153536,6917.814,95.436,540.791,538.567,0.0
49426.0,STARLINK-3114,PAYLOAD,2024-08-16 08:31:53,15.08846949,0.0001594,53.2165,269.4552,70.6557,289.4608,-4.9052e-05,-1.069e-05,0.0,0 STARLINK-3114,1 49426U 21104U   24229.35547495 -.00001069  00000-0 -49052-4 0  9996,2 49426  53.2165 269.4552 0001594  70.6557 289.4608 15.08846949153618,6917.859,95.437,540.827,538.621,0.0
49426.0,STARLINK-3114,PAYLOAD,2024-08-17 09:58:03,15.08842823,0.0001618,53.2152,264.6948,63.5963,296.5195,0.00011299,1.511e-05,0.0,0 STARLINK-3114,1 49426U 21104U   24230.41531643  .00001511  00000-0  11299-3 0  9994,2 49426  53.2152 264.6948 0001618  63.5963 296.5195 15.08842823153773,6917.872,95.437,540.856,538.617,0.0
49426.0,STARLINK-3114,PAYLOAD,2024-08-18 22:31:55,15.08848003,0.0001517,53.2142,257.8553,75.1584,284.9577,0.00023434,3.444e-05,0.0,0 STARLINK-3114,1 49426U 21104U   24231.93883257  .00003444  00000-0  23434-3 0  9994,2 49426  53.2142 257.8553 0001517  75.1584 284.9577 15.08848003152910,6917.856,95.437,540.77,538.671,0.0
49426.0,STARLINK-3114,PAYLOAD,2024-08-19 01:42:41,15.08844784,0.0001586,53.2143,257.2632,72.0923,288.0242,0.00018797,2.705e-05,0.0,0 STARLINK-3114,1 49426U 21104U   24232.07131399  .00002705  00000-0  18797-3 0  9998,2 49426  53.2143 257.2632 0001586  72.0923 288.0242 15.08844784154022,6917.866,95.437,540.828,538.634,0.0
49426.0,STARLINK-3114,PAYLOAD,2024-08-19 08:04:14,15.08836781,0.0001445,53.2146,256.0713,79.7161,280.3994,2.5544e-05,1.19e-06,0.0,0 STARLINK-3114,1 49426U 21104U   24232.33627733  .00000119  00000-0  25544-4 0  9995,2 49426  53.2146 256.0713 0001445  79.7161 280.3994 15.08836781154065,6917.89,95.438,540.755,538.756,0.0
49426.0,STARLINK-3114,PAYLOAD,2024-08-19 12:50:23,15.08840232,0.0001484,53.2147,255.1792,78.3409,281.775,6.7054e-05,7.79e-06,0.0,0 STARLINK-3114,1 49426U 21104U   24232.53499581  .00000779  00000-0  67054-4 0  9999,2 49426  53.2147 255.1792 0001484  78.3409 281.7750 15.08840232153000,6917.88,95.438,540.771,538.718,0.0
49426.0,STARLINK-3114,PAYLOAD,2024-08-20 07:55:00,15.08846497,0.0001475,53.2157,251.61,82.9168,277.1992,3.6766e-05,2.97e-06,0.0,0 STARLINK-3114,1 49426U 21104U   24233.32987160  .00000297  00000-0  36766-4 0  9993,2 49426  53.2157 251.6100 0001475  82.9168 277.1992 15.08846497154218,6917.861,95.437,540.746,538.705,0.0
49426.0,STARLINK-3114,PAYLOAD,2024-08-21 04:35:02,15.08834379,0.0001499,53.2156,247.7437,84.9522,275.1641,8.8791e-05,1.125e-05,0.0,0 STARLINK-3114,1 49426U 21104U   24234.19099759  .00001125  00000-0  88791-4 0  9993,2 49426  53.2156 247.7437 0001499  84.9522 275.1641 15.08834379154347,6917.898,95.438,540.8,538.726,0.0
49426.0,STARLINK-3114,PAYLOAD,2024-08-21 07:45:48,15.08834348,0.0001503,53.2155,247.1489,84.8012,275.3152,8.2864e-05,1.031e-05,0.0,0 STARLINK-3114,1 49426U 21104U   24234.32347807  .00001031  00000-0  82864-4 0  9999,2 49426  53.2155 247.1489 0001503  84.8012 275.3152 15.08834348153272,6917.898,95.438,540.802,538.723,0.0
